KUIPER-00061            
1 64521U 25134X   25211.09889740  .00046074  00000+0  13109-2 0  9995
2 64521  51.8746 154.3246 0004807 240.7736 119.2769 15.35666674  6419
KUIPER-00062            
1 64522U 25134Y   25211.25002315 -.00794956  00000+0 -26872-1 0  9990
2 64522  51.8770 153.5834 0003990 240.8955 250.3653 15.32528302  6430
KUIPER-00063            
1 64523U 25134Z   25211.20928454  .00002014  00000+0  66815-4 0  9996
2 64523  51.8748 153.5720 0003013 199.4430 160.6442 15.36279618  6439
KUIPER-00064            
1 64524U 25134AA  25211.12994565  .00018818  00000+0  51887-3 0  9995
2 64524  51.8762 153.7937 0001517 142.1261 217.9833 15.37140963  6725
KUIPER-00065            
1 64525U 25134AB  25211.25002315 -.00650666  00000+0 -23592-1 0  9998
2 64525  51.8722 153.8266 0007723 240.1904 108.4372 15.30164253  6673
KUIPER-00066            
1 64526U 25134AC  25211.13596775  .00018885  00000+0  52557-3 0  9998
2 64526  51.8760 153.8341 0001197 173.5907 186.5095 15.36848387  6426
KUIPER-00069            
1 64816U 25151A   25210.86799837  .00022486  00000+0  64758-3 0  9990
2 64816  51.8776 222.0202 0005329 183.8106 176.2840 15.35653754  3260
KUIPER-00070            
1 64817U 25151B   25211.16670139 -.00519559  00000+0 -17093-1 0  9990
2 64817  51.8784 220.6693 0005107 210.3048 321.1225 15.33144773  3300
