<?xml version="1.0" encoding="UTF-8"?>
<ndm xmlns:xsi="http://www.w3.org/2001/XMLSchema-instance" xsi:noNamespaceSchemaLocation="https://sanaregistry.org/r/ndmxml_unqualified/ndmxml-2.0.0-master-2.0.xsd">
<omm id="CCSDS_OMM_VERS" version="2.0">
<header><CREATION_DATE/><ORIGINATOR/></header><body><segment><metadata><OBJECT_NAME>KUIPER-00061</OBJECT_NAME><OBJECT_ID>2025-134X</OBJECT_ID><CENTER_NAME>EARTH</CENTER_NAME><REF_FRAME>TEME</REF_FRAME><TIME_SYSTEM>UTC</TIME_SYSTEM><MEAN_ELEMENT_THEORY>SGP4</MEAN_ELEMENT_THEORY></metadata><data><meanElements><EPOCH>2025-07-30T02:22:24.735360</EPOCH><MEAN_MOTION>15.35666674</MEAN_MOTION><ECCENTRICITY>.0004807</ECCENTRICITY><INCLINATION>51.8746</INCLINATION><RA_OF_ASC_NODE>154.3246</RA_OF_ASC_NODE><ARG_OF_PERICENTER>240.7736</ARG_OF_PERICENTER><MEAN_ANOMALY>119.2769</MEAN_ANOMALY></meanElements><tleParameters><EPHEMERIS_TYPE>0</EPHEMERIS_TYPE><CLASSIFICATION_TYPE>U</CLASSIFICATION_TYPE><NORAD_CAT_ID>64521</NORAD_CAT_ID><ELEMENT_SET_NO>999</ELEMENT_SET_NO><REV_AT_EPOCH>641</REV_AT_EPOCH><BSTAR>.13109E-2</BSTAR><MEAN_MOTION_DOT>.46074E-3</MEAN_MOTION_DOT><MEAN_MOTION_DDOT>0</MEAN_MOTION_DDOT></tleParameters></data></segment></body></omm>
<omm id="CCSDS_OMM_VERS" version="2.0">
<header><CREATION_DATE/><ORIGINATOR/></header><body><segment><metadata><OBJECT_NAME>KUIPER-00062</OBJECT_NAME><OBJECT_ID>2025-134Y</OBJECT_ID><CENTER_NAME>EARTH</CENTER_NAME><REF_FRAME>TEME</REF_FRAME><TIME_SYSTEM>UTC</TIME_SYSTEM><MEAN_ELEMENT_THEORY>SGP4</MEAN_ELEMENT_THEORY></metadata><data><meanElements><EPOCH>2025-07-30T06:00:02.000160</EPOCH><MEAN_MOTION>15.32528302</MEAN_MOTION><ECCENTRICITY>.000399</ECCENTRICITY><INCLINATION>51.8770</INCLINATION><RA_OF_ASC_NODE>153.5834</RA_OF_ASC_NODE><ARG_OF_PERICENTER>240.8955</ARG_OF_PERICENTER><MEAN_ANOMALY>250.3653</MEAN_ANOMALY></meanElements><tleParameters><EPHEMERIS_TYPE>0</EPHEMERIS_TYPE><CLASSIFICATION_TYPE>U</CLASSIFICATION_TYPE><NORAD_CAT_ID>64522</NORAD_CAT_ID><ELEMENT_SET_NO>999</ELEMENT_SET_NO><REV_AT_EPOCH>643</REV_AT_EPOCH><BSTAR>-.26872E-1</BSTAR><MEAN_MOTION_DOT>-.794956E-2</MEAN_MOTION_DOT><MEAN_MOTION_DDOT>0</MEAN_MOTION_DDOT></tleParameters></data></segment></body></omm>
<omm id="CCSDS_OMM_VERS" version="2.0">
<header><CREATION_DATE/><ORIGINATOR/></header><body><segment><metadata><OBJECT_NAME>KUIPER-00063</OBJECT_NAME><OBJECT_ID>2025-134Z</OBJECT_ID><CENTER_NAME>EARTH</CENTER_NAME><REF_FRAME>TEME</REF_FRAME><TIME_SYSTEM>UTC</TIME_SYSTEM><MEAN_ELEMENT_THEORY>SGP4</MEAN_ELEMENT_THEORY></metadata><data><meanElements><EPOCH>2025-07-30T05:01:22.184256</EPOCH><MEAN_MOTION>15.36279618</MEAN_MOTION><ECCENTRICITY>.0003013</ECCENTRICITY><INCLINATION>51.8748</INCLINATION><RA_OF_ASC_NODE>153.5720</RA_OF_ASC_NODE><ARG_OF_PERICENTER>199.4430</ARG_OF_PERICENTER><MEAN_ANOMALY>160.6442</MEAN_ANOMALY></meanElements><tleParameters><EPHEMERIS_TYPE>0</EPHEMERIS_TYPE><CLASSIFICATION_TYPE>U</CLASSIFICATION_TYPE><NORAD_CAT_ID>64523</NORAD_CAT_ID><ELEMENT_SET_NO>999</ELEMENT_SET_NO><REV_AT_EPOCH>643</REV_AT_EPOCH><BSTAR>.66815E-4</BSTAR><MEAN_MOTION_DOT>.2014E-4</MEAN_MOTION_DOT><MEAN_MOTION_DDOT>0</MEAN_MOTION_DDOT></tleParameters></data></segment></body></omm>
<omm id="CCSDS_OMM_VERS" version="2.0">
<header><CREATION_DATE/><ORIGINATOR/></header><body><segment><metadata><OBJECT_NAME>KUIPER-00064</OBJECT_NAME><OBJECT_ID>2025-134AA</OBJECT_ID><CENTER_NAME>EARTH</CENTER_NAME><REF_FRAME>TEME</REF_FRAME><TIME_SYSTEM>UTC</TIME_SYSTEM><MEAN_ELEMENT_THEORY>SGP4</MEAN_ELEMENT_THEORY></metadata><data><meanElements><EPOCH>2025-07-30T03:07:07.304160</EPOCH><MEAN_MOTION>15.37140963</MEAN_MOTION><ECCENTRICITY>.0001517</ECCENTRICITY><INCLINATION>51.8762</INCLINATION><RA_OF_ASC_NODE>153.7937</RA_OF_ASC_NODE><ARG_OF_PERICENTER>142.1261</ARG_OF_PERICENTER><MEAN_ANOMALY>217.9833</MEAN_ANOMALY></meanElements><tleParameters><EPHEMERIS_TYPE>0</EPHEMERIS_TYPE><CLASSIFICATION_TYPE>U</CLASSIFICATION_TYPE><NORAD_CAT_ID>64524</NORAD_CAT_ID><ELEMENT_SET_NO>999</ELEMENT_SET_NO><REV_AT_EPOCH>672</REV_AT_EPOCH><BSTAR>.51887E-3</BSTAR><MEAN_MOTION_DOT>.18818E-3</MEAN_MOTION_DOT><MEAN_MOTION_DDOT>0</MEAN_MOTION_DDOT></tleParameters></data></segment></body></omm>
<omm id="CCSDS_OMM_VERS" version="2.0">
<header><CREATION_DATE/><ORIGINATOR/></header><body><segment><metadata><OBJECT_NAME>KUIPER-00065</OBJECT_NAME><OBJECT_ID>2025-134AB</OBJECT_ID><CENTER_NAME>EARTH</CENTER_NAME><REF_FRAME>TEME</REF_FRAME><TIME_SYSTEM>UTC</TIME_SYSTEM><MEAN_ELEMENT_THEORY>SGP4</MEAN_ELEMENT_THEORY></metadata><data><meanElements><EPOCH>2025-07-30T06:00:02.000160</EPOCH><MEAN_MOTION>15.30164253</MEAN_MOTION><ECCENTRICITY>.0007723</ECCENTRICITY><INCLINATION>51.8722</INCLINATION><RA_OF_ASC_NODE>153.8266</RA_OF_ASC_NODE><ARG_OF_PERICENTER>240.1904</ARG_OF_PERICENTER><MEAN_ANOMALY>108.4372</MEAN_ANOMALY></meanElements><tleParameters><EPHEMERIS_TYPE>0</EPHEMERIS_TYPE><CLASSIFICATION_TYPE>U</CLASSIFICATION_TYPE><NORAD_CAT_ID>64525</NORAD_CAT_ID><ELEMENT_SET_NO>999</ELEMENT_SET_NO><REV_AT_EPOCH>667</REV_AT_EPOCH><BSTAR>-.23592E-1</BSTAR><MEAN_MOTION_DOT>-.650666E-2</MEAN_MOTION_DOT><MEAN_MOTION_DDOT>0</MEAN_MOTION_DDOT></tleParameters></data></segment></body></omm>
<omm id="CCSDS_OMM_VERS" version="2.0">
<header><CREATION_DATE/><ORIGINATOR/></header><body><segment><metadata><OBJECT_NAME>KUIPER-00066</OBJECT_NAME><OBJECT_ID>2025-134AC</OBJECT_ID><CENTER_NAME>EARTH</CENTER_NAME><REF_FRAME>TEME</REF_FRAME><TIME_SYSTEM>UTC</TIME_SYSTEM><MEAN_ELEMENT_THEORY>SGP4</MEAN_ELEMENT_THEORY></metadata><data><meanElements><EPOCH>2025-07-30T03:15:47.613600</EPOCH><MEAN_MOTION>15.36848387</MEAN_MOTION><ECCENTRICITY>.0001197</ECCENTRICITY><INCLINATION>51.8760</INCLINATION><RA_OF_ASC_NODE>153.8341</RA_OF_ASC_NODE><ARG_OF_PERICENTER>173.5907</ARG_OF_PERICENTER><MEAN_ANOMALY>186.5095</MEAN_ANOMALY></meanElements><tleParameters><EPHEMERIS_TYPE>0</EPHEMERIS_TYPE><CLASSIFICATION_TYPE>U</CLASSIFICATION_TYPE><NORAD_CAT_ID>64526</NORAD_CAT_ID><ELEMENT_SET_NO>999</ELEMENT_SET_NO><REV_AT_EPOCH>642</REV_AT_EPOCH><BSTAR>.52557E-3</BSTAR><MEAN_MOTION_DOT>.18885E-3</MEAN_MOTION_DOT><MEAN_MOTION_DDOT>0</MEAN_MOTION_DDOT></tleParameters></data></segment></body></omm>
<omm id="CCSDS_OMM_VERS" version="2.0">
<header><CREATION_DATE/><ORIGINATOR/></header><body><segment><metadata><OBJECT_NAME>KUIPER-00069</OBJECT_NAME><OBJECT_ID>2025-151A</OBJECT_ID><CENTER_NAME>EARTH</CENTER_NAME><REF_FRAME>TEME</REF_FRAME><TIME_SYSTEM>UTC</TIME_SYSTEM><MEAN_ELEMENT_THEORY>SGP4</MEAN_ELEMENT_THEORY></metadata><data><meanElements><EPOCH>2025-07-29T20:49:55.059168</EPOCH><MEAN_MOTION>15.35653754</MEAN_MOTION><ECCENTRICITY>.0005329</ECCENTRICITY><INCLINATION>51.8776</INCLINATION><RA_OF_ASC_NODE>222.0202</RA_OF_ASC_NODE><ARG_OF_PERICENTER>183.8106</ARG_OF_PERICENTER><MEAN_ANOMALY>176.2840</MEAN_ANOMALY></meanElements><tleParameters><EPHEMERIS_TYPE>0</EPHEMERIS_TYPE><CLASSIFICATION_TYPE>U</CLASSIFICATION_TYPE><NORAD_CAT_ID>64816</NORAD_CAT_ID><ELEMENT_SET_NO>999</ELEMENT_SET_NO><REV_AT_EPOCH>326</REV_AT_EPOCH><BSTAR>.64758E-3</BSTAR><MEAN_MOTION_DOT>.22486E-3</MEAN_MOTION_DOT><MEAN_MOTION_DDOT>0</MEAN_MOTION_DDOT></tleParameters></data></segment></body></omm>
<omm id="CCSDS_OMM_VERS" version="2.0">
<header><CREATION_DATE/><ORIGINATOR/></header><body><segment><metadata><OBJECT_NAME>KUIPER-00070</OBJECT_NAME><OBJECT_ID>2025-151B</OBJECT_ID><CENTER_NAME>EARTH</CENTER_NAME><REF_FRAME>TEME</REF_FRAME><TIME_SYSTEM>UTC</TIME_SYSTEM><MEAN_ELEMENT_THEORY>SGP4</MEAN_ELEMENT_THEORY></metadata><data><meanElements><EPOCH>2025-07-30T04:00:03.000096</EPOCH><MEAN_MOTION>15.33144773</MEAN_MOTION><ECCENTRICITY>.0005107</ECCENTRICITY><INCLINATION>51.8784</INCLINATION><RA_OF_ASC_NODE>220.6693</RA_OF_ASC_NODE><ARG_OF_PERICENTER>210.3048</ARG_OF_PERICENTER><MEAN_ANOMALY>321.1225</MEAN_ANOMALY></meanElements><tleParameters><EPHEMERIS_TYPE>0</EPHEMERIS_TYPE><CLASSIFICATION_TYPE>U</CLASSIFICATION_TYPE><NORAD_CAT_ID>64817</NORAD_CAT_ID><ELEMENT_SET_NO>999</ELEMENT_SET_NO><REV_AT_EPOCH>330</REV_AT_EPOCH><BSTAR>-.17093E-1</BSTAR><MEAN_MOTION_DOT>-.519559E-2</MEAN_MOTION_DOT><MEAN_MOTION_DDOT>0</MEAN_MOTION_DDOT></tleParameters></data></segment></body></omm>

</ndm>
